HERMES-3                
1 63835U 25052BR  26068.93751242  .00020316  00000+0  69958-3 0  9995
2 63835  97.3987 324.6131 0007993 112.9583 247.2502 15.30039785 54863
STARLINK-36478          
1 67351U 26003T   26068.46712717  .00026407  00000+0  96567-3 0  9994
2 67351  42.9982 227.9872 0001215 264.7832  95.2881 15.27580731  8792
